{"type": "FeatureCollection", "features": [ {"type": "Feature", "properties": {"norad_id": 28649, "name": "IRS-P5 (CARTOSAT-1)", "group": "resource", "lat": 77.85718674284708, "lon": -116.32900886298482, "alt_km": 588.9824186694532, "timestamp": "2025-12-25T19:00:39.004653+00:00", "meta": {"OBJECT_NAME": "IRS-P5 (CARTOSAT-1)", "OBJECT_ID": "2005-017A", "EPOCH": "2025-12-25T02:27:12.423168", "MEAN_MOTION": 14.90444639, "ECCENTRICITY": 5.056e-05, "INCLINATION": 97.5483, "RA_OF_ASC_NODE": 24.9669, "ARG_OF_PERICENTER": 63.7048, "MEAN_ANOMALY": 296.4223, "EPHEMERIS_TYPE": 0, "CLASSIFICATION_TYPE": "U", "NORAD_CAT_ID": 28649, "ELEMENT_SET_NO": 999, "REV_AT_EPOCH": 11788, "BSTAR": 0.00017427847, "MEAN_MOTION_DOT": 1.647e-05, "MEAN_MOTION_DDOT": 0}, "tle": {"line1": "1 28649U 05017A   25359.10222712  .00001647  00000+0  17428-3 0  9995", "line2": "2 28649  97.5483  24.9669 0000505  63.7048 296.4223 14.90444639117888"}}, "geometry": {"type": "Point", "coordinates": [-116.32900886298482, 77.85718674284708]}}, {"type": "Feature", "properties": {"norad_id": 28893, "name": "SINAH 1", "group": "resource", "lat": -66.4093586645478, "lon": 147.81676209549352, "alt_km": 698.3950819274551, "timestamp": "2025-12-25T19:00:39.004665+00:00", "meta": {"OBJECT_NAME": "SINAH 1", "OBJECT_ID": "2005-043D", "EPOCH": "2025-12-25T07:50:18.250368", "MEAN_MOTION": 14.6397532, "ECCENTRICITY": 0.00157228, "INCLINATION": 98.2609, "RA_OF_ASC_NODE": 127.918, "ARG_OF_PERICENTER": 100.3021, "MEAN_ANOMALY": 259.9955, "EPHEMERIS_TYPE": 0, "CLASSIFICATION_TYPE": "U", "NORAD_CAT_ID": 28893, "ELEMENT_SET_NO": 999, "REV_AT_EPOCH": 7508, "BSTAR": 9.756359e-05, "MEAN_MOTION_DOT": 4.63e-06, "MEAN_MOTION_DDOT": 0}, "tle": {"line1": "1 28893U 05043D   25359.32660012  .00000463  00000+0  97564-4 0  9993", "line2": "2 28893  98.2609 127.9180 0015722 100.3021 259.9955 14.63975320 75082"}}, "geometry": {"type": "Point", "coordinates": [147.81676209549352, -66.4093586645478]}}, {"type": "Feature", "properties": {"norad_id": 29079, "name": "EROS B", "group": "resource", "lat": -69.97379416519966, "lon": -83.69916227655297, "alt_km": 357.2149135953978, "timestamp": "2025-12-25T19:00:39.004677+00:00", "meta": {"OBJECT_NAME": "EROS B", "OBJECT_ID": "2006-014A", "EPOCH": "2025-12-25T07:15:15.423840", "MEAN_MOTION": 15.72409375, "ECCENTRICITY": 0.00044291, "INCLINATION": 97.3449, "RA_OF_ASC_NODE": 116.5109, "ARG_OF_PERICENTER": 312.5736, "MEAN_ANOMALY": 47.5154, "EPHEMERIS_TYPE": 0, "CLASSIFICATION_TYPE": "U", "NORAD_CAT_ID": 29079, "ELEMENT_SET_NO": 999, "REV_AT_EPOCH": 9277, "BSTAR": 0.0014815178, "MEAN_MOTION_DOT": 0.00200899, "MEAN_MOTION_DDOT": 0}, "tle": {"line1": "1 29079U 06014A   25359.30226185  .00200899  00000+0  14815-2 0  9997", "line2": "2 29079  97.3449 116.5109 0004429 312.5736  47.5154 15.72409375 92778"}}, "geometry": {"type": "Point", "coordinates": [-83.69916227655297, -69.97379416519966]}}, {"type": "Feature", "properties": {"norad_id": 29228, "name": "RESURS-DK 1", "group": "resource", "lat": -16.520456376359665, "lon": 61.88142261874857, "alt_km": 534.1782127309925, "timestamp": "2025-12-25T19:00:39.004688+00:00", "meta": {"OBJECT_NAME": "RESURS-DK 1", "OBJECT_ID": "2006-021A", "EPOCH": "2025-12-25T06:23:18.536064", "MEAN_MOTION": 15.12229217, "ECCENTRICITY": 0.00069126, "INCLINATION": 69.9336, "RA_OF_ASC_NODE": 69.4642, "ARG_OF_PERICENTER": 247.4897, "MEAN_ANOMALY": 112.5537, "EPHEMERIS_TYPE": 0, "CLASSIFICATION_TYPE": "U", "NORAD_CAT_ID": 29228, "ELEMENT_SET_NO": 999, "REV_AT_EPOCH": 7627, "BSTAR": 0.00017972464, "MEAN_MOTION_DOT": 3.007e-05, "MEAN_MOTION_DDOT": 0}, "tle": {"line1": "1 29228U 06021A   25359.26618676  .00003007  00000+0  17972-3 0  9996", "line2": "2 29228  69.9336  69.4642 0006912 247.4897 112.5537 15.12229217 76279"}}, "geometry": {"type": "Point", "coordinates": [61.88142261874857, -16.520456376359665]}}, {"type": "Feature", "properties": {"norad_id": 29268, "name": "ARIRANG-2 (KOMPSAT-2)", "group": "resource", "lat": -41.641886400683816, "lon": 0.6044298725310686, "alt_km": 678.3935010493615, "timestamp": "2025-12-25T19:00:39.004699+00:00", "meta": {"OBJECT_NAME": "ARIRANG-2 (KOMPSAT-2)", "OBJECT_ID": "2006-031A", "EPOCH": "2025-12-25T07:18:33.817248", "MEAN_MOTION": 14.64503757, "ECCENTRICITY": 0.00131319, "INCLINATION": 97.8257, "RA_OF_ASC_NODE": 187.1649, "ARG_OF_PERICENTER": 265.7439, "MEAN_ANOMALY": 267.4104, "EPHEMERIS_TYPE": 0, "CLASSIFICATION_TYPE": "U", "NORAD_CAT_ID": 29268, "ELEMENT_SET_NO": 999, "REV_AT_EPOCH": 3602, "BSTAR": 4.871759e-05, "MEAN_MOTION_DOT": 2.13e-06, "MEAN_MOTION_DDOT": 0}, "tle": {"line1": "1 29268U 06031A   25359.30455807  .00000213  00000+0  48718-4 0  9990", "line2": "2 29268  97.8257 187.1649 0013131 265.7439 267.4104 14.64503757 36025"}}, "geometry": {"type": "Point", "coordinates": [0.6044298725310686, -41.641886400683816]}}, {"type": "Feature", "properties": {"norad_id": 29709, "name": "LAPAN-TUBSAT", "group": "resource", "lat": 69.34870769579418, "lon": -32.061772582637346, "alt_km": 597.2091973214747, "timestamp": "2025-12-25T19:00:39.004709+00:00", "meta": {"OBJECT_NAME": "LAPAN-TUBSAT", "OBJECT_ID": "2007-001A", "EPOCH": "2025-12-25T05:45:44.186400", "MEAN_MOTION": 14.85687715, "ECCENTRICITY": 0.0013205, "INCLINATION": 98.1265, "RA_OF_ASC_NODE": 349.654, "ARG_OF_PERICENTER": 36.9096, "MEAN_ANOMALY": 323.3024, "EPHEMERIS_TYPE": 0, "CLASSIFICATION_TYPE": "U", "NORAD_CAT_ID": 29709, "ELEMENT_SET_NO": 999, "REV_AT_EPOCH": 2532, "BSTAR": 4.6840909e-05, "MEAN_MOTION_DOT": 3.49e-06, "MEAN_MOTION_DDOT": 0}, "tle": {"line1": "1 29709U 07001A   25359.24009475  .00000349  00000+0  46841-4 0  9992", "line2": "2 29709  98.1265 349.6540 0013205  36.9096 323.3024 14.85687715 25326"}}, "geometry": {"type": "Point", "coordinates": [-32.061772582637346, 69.34870769579418]}}, {"type": "Feature", "properties": {"norad_id": 31113, "name": "HAIYANG-1B", "group": "resource", "lat": -81.58292759353827, "lon": 81.43836481275207, "alt_km": 796.1086259145968, "timestamp": "2025-12-25T19:00:39.004720+00:00", "meta": {"OBJECT_NAME": "HAIYANG-1B", "OBJECT_ID": "2007-010A", "EPOCH": "2025-12-24T19:56:29.461920", "MEAN_MOTION": 14.30968874, "ECCENTRICITY": 0.00136155, "INCLINATION": 98.3329, "RA_OF_ASC_NODE": 342.6102, "ARG_OF_PERICENTER": 3.3672, "MEAN_ANOMALY": 356.7601, "EPHEMERIS_TYPE": 0, "CLASSIFICATION_TYPE": "U", "NORAD_CAT_ID": 31113, "ELEMENT_SET_NO": 999, "REV_AT_EPOCH": 97569, "BSTAR": 5.8199808e-05, "MEAN_MOTION_DOT": 1.12e-06, "MEAN_MOTION_DDOT": 0}, "tle": {"line1": "1 31113U 07010A   25358.83089655  .00000112  00000+0  58200-4 0  9996", "line2": "2 31113  98.3329 342.6102 0013615   3.3672 356.7601 14.30968874975694"}}, "geometry": {"type": "Point", "coordinates": [81.43836481275207, -81.58292759353827]}}, {"type": "Feature", "properties": {"norad_id": 31598, "name": "COSMO-SKYMED 1", "group": "resource", "lat": 37.298758804679004, "lon": 11.33690632646466, "alt_km": 576.7049795075736, "timestamp": "2025-12-25T19:00:39.004731+00:00", "meta": {"OBJECT_NAME": "COSMO-SKYMED 1", "OBJECT_ID": "2007-023A", "EPOCH": "2025-12-25T07:08:21.965280", "MEAN_MOTION": 14.95856664, "ECCENTRICITY": 0.00012418, "INCLINATION": 97.884, "RA_OF_ASC_NODE": 184.7798, "ARG_OF_PERICENTER": 77.7608, "MEAN_ANOMALY": 282.3752, "EPHEMERIS_TYPE": 0, "CLASSIFICATION_TYPE": "U", "NORAD_CAT_ID": 31598, "ELEMENT_SET_NO": 999, "REV_AT_EPOCH": 378, "BSTAR": 0.00028549353, "MEAN_MOTION_DOT": 3.131e-05, "MEAN_MOTION_DDOT": 0}, "tle": {"line1": "1 31598U 07023A   25359.29747645  .00003131  00000+0  28549-3 0  9994", "line2": "2 31598  97.8840 184.7798 0001241  77.7608 282.3752 14.95856664  3782"}}, "geometry": {"type": "Point", "coordinates": [11.33690632646466, 37.298758804679004]}}, {"type": "Feature", "properties": {"norad_id": 31698, "name": "TERRASAR-X", "group": "resource", "lat": 7.245230947031129, "lon": -174.06582338126864, "alt_km": 510.6384492250827, "timestamp": "2025-12-25T19:00:39.004741+00:00", "meta": {"OBJECT_NAME": "TERRASAR-X", "OBJECT_ID": "2007-026A", "EPOCH": "2025-12-24T13:47:55.330080", "MEAN_MOTION": 15.19151427, "ECCENTRICITY": 0.00018153, "INCLINATION": 97.4444, "RA_OF_ASC_NODE": 3.7823, "ARG_OF_PERICENTER": 79.9991, "MEAN_ANOMALY": 280.1449, "EPHEMERIS_TYPE": 0, "CLASSIFICATION_TYPE": "U", "NORAD_CAT_ID": 31698, "ELEMENT_SET_NO": 999, "REV_AT_EPOCH": 2671, "BSTAR": 4.8169766e-05, "MEAN_MOTION_DOT": 9.45e-06, "MEAN_MOTION_DDOT": 0}, "tle": {"line1": "1 31698U 07026A   25358.57494595  .00000945  00000+0  48170-4 0  9994", "line2": "2 31698  97.4444   3.7823 0001815  79.9991 280.1449 15.19151427 26713"}}, "geometry": {"type": "Point", "coordinates": [-174.06582338126864, 7.245230947031129]}}, {"type": "Feature", "properties": {"norad_id": 32060, "name": "WORLDVIEW-1 (WV-1)", "group": "resource", "lat": 57.49171648940091, "lon": 105.34263997315193, "alt_km": 487.5108202255087, "timestamp": "2025-12-25T19:00:39.004752+00:00", "meta": {"OBJECT_NAME": "WORLDVIEW-1 (WV-1)", "OBJECT_ID": "2007-041A", "EPOCH": "2025-12-25T07:43:31.061856", "MEAN_MOTION": 15.23960036, "ECCENTRICITY": 0.00031421, "INCLINATION": 97.3822, "RA_OF_ASC_NODE": 116.6184, "ARG_OF_PERICENTER": 354.2284, "MEAN_ANOMALY": 5.8916, "EPHEMERIS_TYPE": 0, "CLASSIFICATION_TYPE": "U", "NORAD_CAT_ID": 32060, "ELEMENT_SET_NO": 999, "REV_AT_EPOCH": 1639, "BSTAR": 0.00035010562, "MEAN_MOTION_DOT": 8.403e-05, "MEAN_MOTION_DDOT": 0}, "tle": {"line1": "1 32060U 07041A   25359.32188729  .00008403  00000+0  35011-3 0  9994", "line2": "2 32060  97.3822 116.6184 0003142 354.2284   5.8916 15.23960036 16392"}}, "geometry": {"type": "Point", "coordinates": [105.34263997315193, 57.49171648940091]}}]}